CSS (TIANHE)            
1 48274U 21035A   24232.53804311  .00049535  00000+0  56942-3 0  9998
2 48274  41.4683  57.0450 0002846 271.8156  88.2357 15.61180114189003
